STARLINK-3282           
1 50177U 21125X   26068.89776409 -.00002349  00000+0 -12956-3 0  9998
2 50177  53.2159 248.1843 0001099 120.2362 239.8739 15.08838044236634
LEMUR-2-LANGER2SPACE    
1 63358U 25061H   26068.93705617  .00006238  00000+0  35148-3 0  9991
2 63358  97.5541  45.3892 0015335 237.4180 122.5571 15.13463796 52602
