[{"OBJECT_NAME":"STARLINK-3282","OBJECT_ID":"2021-125X","EPOCH":"2026-03-09T21:32:46.817376","MEAN_MOTION":15.08838044,"ECCENTRICITY":0.00010992,"INCLINATION":53.2159,"RA_OF_ASC_NODE":248.1843,"ARG_OF_PERICENTER":120.2362,"MEAN_ANOMALY":239.8739,"EPHEMERIS_TYPE":0,"CLASSIFICATION_TYPE":"U","NORAD_CAT_ID":50177,"ELEMENT_SET_NO":999,"REV_AT_EPOCH":23663,"BSTAR":-0.00012955644,"MEAN_MOTION_DOT":-2.349e-5,"MEAN_MOTION_DDOT":0},{"OBJECT_NAME":"LEMUR-2-LANGER2SPACE","OBJECT_ID":"2025-061H","EPOCH":"2026-03-09T22:29:21.653952","MEAN_MOTION":15.13463796,"ECCENTRICITY":0.00153346,"INCLINATION":97.5541,"RA_OF_ASC_NODE":45.3892,"ARG_OF_PERICENTER":237.418,"MEAN_ANOMALY":122.5571,"EPHEMERIS_TYPE":0,"CLASSIFICATION_TYPE":"U","NORAD_CAT_ID":63358,"ELEMENT_SET_NO":999,"REV_AT_EPOCH":5260,"BSTAR":0.00035148431,"MEAN_MOTION_DOT":6.238e-5,"MEAN_MOTION_DDOT":0}]
